{"type": "FeatureCollection", "features": [ {"type": "Feature", "properties": {"norad_id": 35108, "name": "FENGYUN 1C DEB", "group": "fengyun-1c-debris", "lat": 71.76956773219791, "lon": -47.74672475435595, "alt_km": 765.729002304518, "timestamp": "2025-12-10T14:53:37.378216+00:00", "meta": {"OBJECT_NAME": "FENGYUN 1C DEB", "OBJECT_ID": "1999-025DKL", "EPOCH": "2025-12-08T06:13:34.793472", "MEAN_MOTION": 14.06905654, "ECCENTRICITY": 0.01350645, "INCLINATION": 98.7996, "RA_OF_ASC_NODE": 338.0081, "ARG_OF_PERICENTER": 74.0763, "MEAN_ANOMALY": 287.5242, "EPHEMERIS_TYPE": 0, "CLASSIFICATION_TYPE": "U", "NORAD_CAT_ID": 35108, "ELEMENT_SET_NO": 999, "REV_AT_EPOCH": 89175, "BSTAR": 0.00049382125, "MEAN_MOTION_DOT": 8.52e-06, "MEAN_MOTION_DDOT": 0}, "tle": {"line1": "1 35108U 99025DKL 25342.25943048  .00000852  00000+0  49382-3 0  9996", "line2": "2 35108  98.7996 338.0081 0135064  74.0763 287.5242 14.06905654891756"}}, "geometry": {"type": "Point", "coordinates": [-47.74672475435595, 71.76956773219791]}}, {"type": "Feature", "properties": {"norad_id": 35109, "name": "FENGYUN 1C DEB", "group": "fengyun-1c-debris", "lat": 52.872390226412676, "lon": 165.50890073913686, "alt_km": 807.5510056918201, "timestamp": "2025-12-10T14:53:37.378225+00:00", "meta": {"OBJECT_NAME": "FENGYUN 1C DEB", "OBJECT_ID": "1999-025DKM", "EPOCH": "2025-12-08T04:51:14.194368", "MEAN_MOTION": 14.20865245, "ECCENTRICITY": 0.01536181, "INCLINATION": 98.6162, "RA_OF_ASC_NODE": 331.5968, "ARG_OF_PERICENTER": 47.4251, "MEAN_ANOMALY": 313.9771, "EPHEMERIS_TYPE": 0, "CLASSIFICATION_TYPE": "U", "NORAD_CAT_ID": 35109, "ELEMENT_SET_NO": 999, "REV_AT_EPOCH": 64095, "BSTAR": 0.00053660698, "MEAN_MOTION_DOT": 1.265e-05, "MEAN_MOTION_DDOT": 0}, "tle": {"line1": "1 35109U 99025DKM 25342.20224762  .00001265  00000+0  53661-3 0  9991", "line2": "2 35109  98.6162 331.5968 0153618  47.4251 313.9771 14.20865245640956"}}, "geometry": {"type": "Point", "coordinates": [165.50890073913686, 52.872390226412676]}}, {"type": "Feature", "properties": {"norad_id": 35111, "name": "FENGYUN 1C DEB", "group": "fengyun-1c-debris", "lat": 51.2894145874766, "lon": 51.14354067337566, "alt_km": 866.816653908144, "timestamp": "2025-12-10T14:53:37.378234+00:00", "meta": {"OBJECT_NAME": "FENGYUN 1C DEB", "OBJECT_ID": "1999-025DKP", "EPOCH": "2025-12-07T11:45:43.563456", "MEAN_MOTION": 14.10954545, "ECCENTRICITY": 0.00216077, "INCLINATION": 99.4664, "RA_OF_ASC_NODE": 59.8627, "ARG_OF_PERICENTER": 235.1352, "MEAN_ANOMALY": 124.7786, "EPHEMERIS_TYPE": 0, "CLASSIFICATION_TYPE": "U", "NORAD_CAT_ID": 35111, "ELEMENT_SET_NO": 999, "REV_AT_EPOCH": 64070, "BSTAR": 0.00078112566, "MEAN_MOTION_DOT": 1.356e-05, "MEAN_MOTION_DDOT": 0}, "tle": {"line1": "1 35111U 99025DKP 25341.49008754  .00001356  00000+0  78113-3 0  9995", "line2": "2 35111  99.4664  59.8627 0021607 235.1352 124.7786 14.10954545640705"}}, "geometry": {"type": "Point", "coordinates": [51.14354067337566, 51.2894145874766]}}, {"type": "Feature", "properties": {"norad_id": 35116, "name": "FENGYUN 1C DEB", "group": "fengyun-1c-debris", "lat": -9.98193106611991, "lon": -150.92170824338973, "alt_km": 842.241966456625, "timestamp": "2025-12-10T14:53:37.378243+00:00", "meta": {"OBJECT_NAME": "FENGYUN 1C DEB", "OBJECT_ID": "1999-025DKU", "EPOCH": "2025-12-09T09:21:47.890368", "MEAN_MOTION": 14.25052902, "ECCENTRICITY": 0.00591716, "INCLINATION": 98.6621, "RA_OF_ASC_NODE": 29.4014, "ARG_OF_PERICENTER": 58.7756, "MEAN_ANOMALY": 301.9204, "EPHEMERIS_TYPE": 0, "CLASSIFICATION_TYPE": "U", "NORAD_CAT_ID": 35116, "ELEMENT_SET_NO": 999, "REV_AT_EPOCH": 59912, "BSTAR": 0.0015811278, "MEAN_MOTION_DOT": 3.731e-05, "MEAN_MOTION_DDOT": 0}, "tle": {"line1": "1 35116U 99025DKU 25343.39013762  .00003731  00000+0  15811-2 0  9990", "line2": "2 35116  98.6621  29.4014 0059171  58.7756 301.9204 14.25052902599126"}}, "geometry": {"type": "Point", "coordinates": [-150.92170824338973, -9.98193106611991]}}, {"type": "Feature", "properties": {"norad_id": 35121, "name": "FENGYUN 1C DEB", "group": "fengyun-1c-debris", "lat": 13.5513009163784, "lon": 30.064090034221817, "alt_km": 826.0169959211989, "timestamp": "2025-12-10T14:53:37.378252+00:00", "meta": {"OBJECT_NAME": "FENGYUN 1C DEB", "OBJECT_ID": "1999-025DKZ", "EPOCH": "2025-11-23T20:23:41.984736", "MEAN_MOTION": 14.04733583, "ECCENTRICITY": 0.0157971, "INCLINATION": 98.3025, "RA_OF_ASC_NODE": 192.694, "ARG_OF_PERICENTER": 150.2058, "MEAN_ANOMALY": 210.8223, "EPHEMERIS_TYPE": 0, "CLASSIFICATION_TYPE": "U", "NORAD_CAT_ID": 35121, "ELEMENT_SET_NO": 999, "REV_AT_EPOCH": 60826, "BSTAR": 0.00039097454, "MEAN_MOTION_DOT": 6.63e-06, "MEAN_MOTION_DDOT": 0}, "tle": {"line1": "1 35121U 99025DKZ 25327.84979149  .00000663  00000+0  39097-3 0  9992", "line2": "2 35121  98.3025 192.6940 0157971 150.2058 210.8223 14.04733583608261"}}, "geometry": {"type": "Point", "coordinates": [30.064090034221817, 13.5513009163784]}}, {"type": "Feature", "properties": {"norad_id": 35122, "name": "FENGYUN 1C DEB", "group": "fengyun-1c-debris", "lat": 13.771833160646235, "lon": 0.9525494353032731, "alt_km": 861.9044234691064, "timestamp": "2025-12-10T14:53:37.378261+00:00", "meta": {"OBJECT_NAME": "FENGYUN 1C DEB", "OBJECT_ID": "1999-025DLA", "EPOCH": "2025-12-08T18:40:35.201280", "MEAN_MOTION": 14.14118266, "ECCENTRICITY": 0.00251505, "INCLINATION": 98.6722, "RA_OF_ASC_NODE": 1.3085, "ARG_OF_PERICENTER": 168.8347, "MEAN_ANOMALY": 191.339, "EPHEMERIS_TYPE": 0, "CLASSIFICATION_TYPE": "U", "NORAD_CAT_ID": 35122, "ELEMENT_SET_NO": 999, "REV_AT_EPOCH": 63811, "BSTAR": 0.00051682639, "MEAN_MOTION_DOT": 9.44e-06, "MEAN_MOTION_DDOT": 0}, "tle": {"line1": "1 35122U 99025DLA 25342.77818520  .00000944  00000+0  51683-3 0  9994", "line2": "2 35122  98.6722   1.3085 0025150 168.8347 191.3390 14.14118266638115"}}, "geometry": {"type": "Point", "coordinates": [0.9525494353032731, 13.771833160646235]}}, {"type": "Feature", "properties": {"norad_id": 35123, "name": "FENGYUN 1C DEB", "group": "fengyun-1c-debris", "lat": 80.6000459760022, "lon": 63.26532495713072, "alt_km": 768.6173349980954, "timestamp": "2025-12-10T14:53:37.378270+00:00", "meta": {"OBJECT_NAME": "FENGYUN 1C DEB", "OBJECT_ID": "1999-025DLB", "EPOCH": "2025-12-08T18:37:37.109280", "MEAN_MOTION": 14.24202991, "ECCENTRICITY": 0.00495513, "INCLINATION": 99.1215, "RA_OF_ASC_NODE": 165.3075, "ARG_OF_PERICENTER": 87.3864, "MEAN_ANOMALY": 273.2984, "EPHEMERIS_TYPE": 0, "CLASSIFICATION_TYPE": "U", "NORAD_CAT_ID": 35123, "ELEMENT_SET_NO": 999, "REV_AT_EPOCH": 61017, "BSTAR": 0.00099768777, "MEAN_MOTION_DOT": 2.282e-05, "MEAN_MOTION_DDOT": 0}, "tle": {"line1": "1 35123U 99025DLB 25342.77612395  .00002282  00000+0  99769-3 0  9991", "line2": "2 35123  99.1215 165.3075 0049551  87.3864 273.2984 14.24202991610174"}}, "geometry": {"type": "Point", "coordinates": [63.26532495713072, 80.6000459760022]}}, {"type": "Feature", "properties": {"norad_id": 35125, "name": "FENGYUN 1C DEB", "group": "fengyun-1c-debris", "lat": 70.28625990338644, "lon": -160.44526712526948, "alt_km": 810.8768410330604, "timestamp": "2025-12-10T14:53:37.378280+00:00", "meta": {"OBJECT_NAME": "FENGYUN 1C DEB", "OBJECT_ID": "1999-025DLD", "EPOCH": "2025-12-08T07:05:36.118752", "MEAN_MOTION": 14.33084151, "ECCENTRICITY": 0.00521413, "INCLINATION": 98.2165, "RA_OF_ASC_NODE": 353.5679, "ARG_OF_PERICENTER": 308.0323, "MEAN_ANOMALY": 51.6162, "EPHEMERIS_TYPE": 0, "CLASSIFICATION_TYPE": "U", "NORAD_CAT_ID": 35125, "ELEMENT_SET_NO": 999, "REV_AT_EPOCH": 31218, "BSTAR": 0.0020544677, "MEAN_MOTION_DOT": 5.68e-05, "MEAN_MOTION_DDOT": 0}, "tle": {"line1": "1 35125U 99025DLD 25342.29555693  .00005680  00000+0  20545-2 0  9997", "line2": "2 35125  98.2165 353.5679 0052141 308.0323  51.6162 14.33084151312185"}}, "geometry": {"type": "Point", "coordinates": [-160.44526712526948, 70.28625990338644]}}, {"type": "Feature", "properties": {"norad_id": 35130, "name": "FENGYUN 1C DEB", "group": "fengyun-1c-debris", "lat": -80.6428937108357, "lon": -66.03204856563818, "alt_km": 581.718802767703, "timestamp": "2025-12-10T14:53:37.378289+00:00", "meta": {"OBJECT_NAME": "FENGYUN 1C DEB", "OBJECT_ID": "1999-025DLJ", "EPOCH": "2025-12-08T20:03:27.815040", "MEAN_MOTION": 14.99018791, "ECCENTRICITY": 0.0008412, "INCLINATION": 99.0326, "RA_OF_ASC_NODE": 186.7829, "ARG_OF_PERICENTER": 83.8582, "MEAN_ANOMALY": 276.3595, "EPHEMERIS_TYPE": 0, "CLASSIFICATION_TYPE": "U", "NORAD_CAT_ID": 35130, "ELEMENT_SET_NO": 999, "REV_AT_EPOCH": 64855, "BSTAR": 0.0096494, "MEAN_MOTION_DOT": 0.00118936, "MEAN_MOTION_DDOT": 0}, "tle": {"line1": "1 35130U 99025DLJ 25342.83573860  .00118936  00000+0  96494-2 0  9994", "line2": "2 35130  99.0326 186.7829 0008412  83.8582 276.3595 14.99018791648557"}}, "geometry": {"type": "Point", "coordinates": [-66.03204856563818, -80.6428937108357]}}, {"type": "Feature", "properties": {"norad_id": 35135, "name": "FENGYUN 1C DEB", "group": "fengyun-1c-debris", "lat": -81.22051634340653, "lon": 96.11068895822446, "alt_km": 770.2646506230049, "timestamp": "2025-12-10T14:53:37.378298+00:00", "meta": {"OBJECT_NAME": "FENGYUN 1C DEB", "OBJECT_ID": "1999-025DLP", "EPOCH": "2025-12-10T06:52:44.807808", "MEAN_MOTION": 14.22529436, "ECCENTRICITY": 0.00809931, "INCLINATION": 98.565, "RA_OF_ASC_NODE": 353.1608, "ARG_OF_PERICENTER": 291.6551, "MEAN_ANOMALY": 67.6016, "EPHEMERIS_TYPE": 0, "CLASSIFICATION_TYPE": "U", "NORAD_CAT_ID": 35135, "ELEMENT_SET_NO": 999, "REV_AT_EPOCH": 87789, "BSTAR": 0.00073581245, "MEAN_MOTION_DOT": 1.655e-05, "MEAN_MOTION_DDOT": 0}, "tle": {"line1": "1 35135U 99025DLP 25344.28662972  .00001655  00000+0  73581-3 0  9995", "line2": "2 35135  98.5650 353.1608 0080993 291.6551  67.6016 14.22529436877899"}}, "geometry": {"type": "Point", "coordinates": [96.11068895822446, -81.22051634340653]}}]}